STARLINK-32750          
1 62572U 25006U   26072.58984871  .00042834  00000+0  15557-2 0  9997
2 62572  43.0010 270.1516 0001132 247.9173 112.1559 15.27609873 65467
STARLINK-32771          
1 62573U 25006V   26072.60012650  .00023494  00000+0  85995-3 0  9993
2 62573  43.0000 270.2333 0001052 270.0248  90.0483 15.27603334 65462
STARLINK-32766          
1 62574U 25006W   26072.61811580  .00029235  00000+0  10671-2 0  9991
2 62574  43.0001 270.3679 0002179 273.5220  86.5382 15.27597564 65462
STARLINK-11547 [DTC]    
1 62587U 25008A   26072.51576260  .00213147  00000+0  16190-2 0  9998
2 62587  42.9987 103.3127 0001234 232.9338 127.1417 15.70888891 66714
STARLINK-11185 [DTC]    
1 62588U 25008B   26072.42033016  .00293618  00000+0  22045-2 0  9993
2 62588  43.0001 103.4403 0001358 297.4393  62.6337 15.70919554 66700
STARLINK-11513 [DTC]    
1 62589U 25008C   26072.44156587  .00228532  00000+0  17339-2 0  9998
2 62589  43.0006 103.6097 0000855 298.3092  61.7689 15.70868275 66707
STARLINK-11397 [DTC]    
1 62590U 25008D   26072.46798637  .00292263  00000+0  21972-2 0  9990
2 62590  42.9998 102.9275 0000360 339.8795  20.2058 15.70891304 67822
STARLINK-11420 [DTC]    
1 62591U 25008E   26072.12895423  .00237357  00000+0  17908-2 0  9992
2 62591  43.0045 105.5693 0002804 272.8681  87.1866 15.70972825 67834
STARLINK-11415 [DTC]    
1 62592U 25008F   26072.46280035  .00193899  00000+0  14777-2 0  9990
2 62592  43.0012 103.7810 0001642 253.0665 107.0023 15.70871479 67810
STARLINK-11413 [DTC]    
1 62593U 25008G   26072.45749375  .00234038  00000+0  17711-2 0  9999
2 62593  43.0002 103.7378 0001109 301.2550  58.8209 15.70912616 67779
STARLINK-11416 [DTC]    
1 62594U 25008H   26072.47859044  .00248449  00000+0  18773-2 0  9997
2 62594  43.0029 102.9766 0002473 267.3353  92.7232 15.70903872 67710
STARLINK-11535 [DTC]    
1 62595U 25008J   26072.47327249  .00109283  00000+0  84334-3 0  9994
2 62595  43.0000 102.9687 0002006 264.8835  95.1804 15.70858096 67732
STARLINK-11521 [DTC]    
1 62597U 25008L   26072.48922149  .00213738  00000+0  16248-2 0  9996
2 62597  42.9996 103.0962 0000174 273.7756  86.3092 15.70868127 67882
STARLINK-11258 [DTC]    
1 62598U 25008M   26072.58334491  .00211029  00000+0  16129-2 0  9994
2 62598  43.0005 102.6052 0001465 275.7899 227.1838 15.70747137  5988
STARLINK-11529 [DTC]    
1 62599U 25008N   26072.49983470  .00172519  00000+0  13187-2 0  9993
2 62599  42.9997 103.1808 0000946 235.4612 124.6167 15.70868389 67898
STARLINK-32747          
1 62600U 25008P   26072.56740554  .00044985  00000+0  16326-2 0  9991
2 62600  43.0009 256.3558 0002896 290.5546  69.4995 15.27612389 66156
