[{"OBJECT_NAME":"STARLINK-32750","OBJECT_ID":"2025-006U","EPOCH":"2026-03-13T14:09:22.928544","MEAN_MOTION":15.27609873,"ECCENTRICITY":0.00011329,"INCLINATION":43.001,"RA_OF_ASC_NODE":270.1516,"ARG_OF_PERICENTER":247.9173,"MEAN_ANOMALY":112.1559,"EPHEMERIS_TYPE":0,"CLASSIFICATION_TYPE":"U","NORAD_CAT_ID":62572,"ELEMENT_SET_NO":999,"REV_AT_EPOCH":6546,"BSTAR":0.0015556574,"MEAN_MOTION_DOT":0.00042834,"MEAN_MOTION_DDOT":0},{"OBJECT_NAME":"STARLINK-32771","OBJECT_ID":"2025-006V","EPOCH":"2026-03-13T14:24:10.929600","MEAN_MOTION":15.27603334,"ECCENTRICITY":0.00010523,"INCLINATION":43,"RA_OF_ASC_NODE":270.2333,"ARG_OF_PERICENTER":270.0248,"MEAN_ANOMALY":90.0483,"EPHEMERIS_TYPE":0,"CLASSIFICATION_TYPE":"U","NORAD_CAT_ID":62573,"ELEMENT_SET_NO":999,"REV_AT_EPOCH":6546,"BSTAR":0.00085994736,"MEAN_MOTION_DOT":0.00023494,"MEAN_MOTION_DDOT":0},{"OBJECT_NAME":"STARLINK-32766","OBJECT_ID":"2025-006W","EPOCH":"2026-03-13T14:50:05.205120","MEAN_MOTION":15.27597564,"ECCENTRICITY":0.00021798,"INCLINATION":43.0001,"RA_OF_ASC_NODE":270.3679,"ARG_OF_PERICENTER":273.522,"MEAN_ANOMALY":86.5382,"EPHEMERIS_TYPE":0,"CLASSIFICATION_TYPE":"U","NORAD_CAT_ID":62574,"ELEMENT_SET_NO":999,"REV_AT_EPOCH":6546,"BSTAR":0.001067082,"MEAN_MOTION_DOT":0.00029235,"MEAN_MOTION_DDOT":0},{"OBJECT_NAME":"STARLINK-11547 [DTC]","OBJECT_ID":"2025-008A","EPOCH":"2026-03-13T12:22:41.888640","MEAN_MOTION":15.70888891,"ECCENTRICITY":0.00012346,"INCLINATION":42.9987,"RA_OF_ASC_NODE":103.3127,"ARG_OF_PERICENTER":232.9338,"MEAN_ANOMALY":127.1417,"EPHEMERIS_TYPE":0,"CLASSIFICATION_TYPE":"U","NORAD_CAT_ID":62587,"ELEMENT_SET_NO":999,"REV_AT_EPOCH":6671,"BSTAR":0.0016190376,"MEAN_MOTION_DOT":0.00213147,"MEAN_MOTION_DDOT":0},{"OBJECT_NAME":"STARLINK-11185 [DTC]","OBJECT_ID":"2025-008B","EPOCH":"2026-03-13T10:05:16.525824","MEAN_MOTION":15.70919554,"ECCENTRICITY":0.00013585,"INCLINATION":43.0001,"RA_OF_ASC_NODE":103.4403,"ARG_OF_PERICENTER":297.4393,"MEAN_ANOMALY":62.6337,"EPHEMERIS_TYPE":0,"CLASSIFICATION_TYPE":"U","NORAD_CAT_ID":62588,"ELEMENT_SET_NO":999,"REV_AT_EPOCH":6670,"BSTAR":0.0022044679,"MEAN_MOTION_DOT":0.00293618,"MEAN_MOTION_DDOT":0},{"OBJECT_NAME":"STARLINK-11513 [DTC]","OBJECT_ID":"2025-008C","EPOCH":"2026-03-13T10:35:51.291168","MEAN_MOTION":15.70868275,"ECCENTRICITY":8.553e-5,"INCLINATION":43.0006,"RA_OF_ASC_NODE":103.6097,"ARG_OF_PERICENTER":298.3092,"MEAN_ANOMALY":61.7689,"EPHEMERIS_TYPE":0,"CLASSIFICATION_TYPE":"U","NORAD_CAT_ID":62589,"ELEMENT_SET_NO":999,"REV_AT_EPOCH":6670,"BSTAR":0.0017339042,"MEAN_MOTION_DOT":0.00228532,"MEAN_MOTION_DDOT":0},{"OBJECT_NAME":"STARLINK-11397 [DTC]","OBJECT_ID":"2025-008D","EPOCH":"2026-03-13T11:13:54.022368","MEAN_MOTION":15.70891304,"ECCENTRICITY":3.606e-5,"INCLINATION":42.9998,"RA_OF_ASC_NODE":102.9275,"ARG_OF_PERICENTER":339.8795,"MEAN_ANOMALY":20.2058,"EPHEMERIS_TYPE":0,"CLASSIFICATION_TYPE":"U","NORAD_CAT_ID":62590,"ELEMENT_SET_NO":999,"REV_AT_EPOCH":6782,"BSTAR":0.0021971627,"MEAN_MOTION_DOT":0.00292263,"MEAN_MOTION_DDOT":0},{"OBJECT_NAME":"STARLINK-11420 [DTC]","OBJECT_ID":"2025-008E","EPOCH":"2026-03-13T03:05:41.645472","MEAN_MOTION":15.70972825,"ECCENTRICITY":0.00028041,"INCLINATION":43.0045,"RA_OF_ASC_NODE":105.5693,"ARG_OF_PERICENTER":272.8681,"MEAN_ANOMALY":87.1866,"EPHEMERIS_TYPE":0,"CLASSIFICATION_TYPE":"U","NORAD_CAT_ID":62591,"ELEMENT_SET_NO":999,"REV_AT_EPOCH":6783,"BSTAR":0.0017908427,"MEAN_MOTION_DOT":0.00237357,"MEAN_MOTION_DDOT":0},{"OBJECT_NAME":"STARLINK-11415 [DTC]","OBJECT_ID":"2025-008F","EPOCH":"2026-03-13T11:06:25.950240","MEAN_MOTION":15.70871479,"ECCENTRICITY":0.00016426,"INCLINATION":43.0012,"RA_OF_ASC_NODE":103.781,"ARG_OF_PERICENTER":253.0665,"MEAN_ANOMALY":107.0023,"EPHEMERIS_TYPE":0,"CLASSIFICATION_TYPE":"U","NORAD_CAT_ID":62592,"ELEMENT_SET_NO":999,"REV_AT_EPOCH":6781,"BSTAR":0.0014776549,"MEAN_MOTION_DOT":0.00193899,"MEAN_MOTION_DDOT":0},{"OBJECT_NAME":"STARLINK-11413 [DTC]","OBJECT_ID":"2025-008G","EPOCH":"2026-03-13T10:58:47.460000","MEAN_MOTION":15.70912616,"ECCENTRICITY":0.0001109,"INCLINATION":43.0002,"RA_OF_ASC_NODE":103.7378,"ARG_OF_PERICENTER":301.255,"MEAN_ANOMALY":58.8209,"EPHEMERIS_TYPE":0,"CLASSIFICATION_TYPE":"U","NORAD_CAT_ID":62593,"ELEMENT_SET_NO":999,"REV_AT_EPOCH":6777,"BSTAR":0.0017711236,"MEAN_MOTION_DOT":0.00234038,"MEAN_MOTION_DDOT":0},{"OBJECT_NAME":"STARLINK-11416 [DTC]","OBJECT_ID":"2025-008H","EPOCH":"2026-03-13T11:29:10.214016","MEAN_MOTION":15.70903872,"ECCENTRICITY":0.00024731,"INCLINATION":43.0029,"RA_OF_ASC_NODE":102.9766,"ARG_OF_PERICENTER":267.3353,"MEAN_ANOMALY":92.7232,"EPHEMERIS_TYPE":0,"CLASSIFICATION_TYPE":"U","NORAD_CAT_ID":62594,"ELEMENT_SET_NO":999,"REV_AT_EPOCH":6771,"BSTAR":0.0018773254,"MEAN_MOTION_DOT":0.00248449,"MEAN_MOTION_DDOT":0},{"OBJECT_NAME":"STARLINK-11535 [DTC]","OBJECT_ID":"2025-008J","EPOCH":"2026-03-13T11:21:30.743136","MEAN_MOTION":15.70858096,"ECCENTRICITY":0.00020068,"INCLINATION":43,"RA_OF_ASC_NODE":102.9687,"ARG_OF_PERICENTER":264.8835,"MEAN_ANOMALY":95.1804,"EPHEMERIS_TYPE":0,"CLASSIFICATION_TYPE":"U","NORAD_CAT_ID":62595,"ELEMENT_SET_NO":999,"REV_AT_EPOCH":6773,"BSTAR":0.00084334216,"MEAN_MOTION_DOT":0.00109283,"MEAN_MOTION_DDOT":0},{"OBJECT_NAME":"STARLINK-11521 [DTC]","OBJECT_ID":"2025-008L","EPOCH":"2026-03-13T11:44:28.736736","MEAN_MOTION":15.70868127,"ECCENTRICITY":1.74e-5,"INCLINATION":42.9996,"RA_OF_ASC_NODE":103.0962,"ARG_OF_PERICENTER":273.7756,"MEAN_ANOMALY":86.3092,"EPHEMERIS_TYPE":0,"CLASSIFICATION_TYPE":"U","NORAD_CAT_ID":62597,"ELEMENT_SET_NO":999,"REV_AT_EPOCH":6788,"BSTAR":0.0016247516,"MEAN_MOTION_DOT":0.00213738,"MEAN_MOTION_DDOT":0},{"OBJECT_NAME":"STARLINK-11258 [DTC]","OBJECT_ID":"2025-008M","EPOCH":"2026-03-13T14:00:01.000224","MEAN_MOTION":15.70747137,"ECCENTRICITY":0.00014654,"INCLINATION":43.0005,"RA_OF_ASC_NODE":102.6052,"ARG_OF_PERICENTER":275.7899,"MEAN_ANOMALY":227.1838,"EPHEMERIS_TYPE":0,"CLASSIFICATION_TYPE":"U","NORAD_CAT_ID":62598,"ELEMENT_SET_NO":999,"REV_AT_EPOCH":598,"BSTAR":0.0016129435,"MEAN_MOTION_DOT":0.00211029,"MEAN_MOTION_DDOT":0},{"OBJECT_NAME":"STARLINK-11529 [DTC]","OBJECT_ID":"2025-008N","EPOCH":"2026-03-13T11:59:45.718080","MEAN_MOTION":15.70868389,"ECCENTRICITY":9.468e-5,"INCLINATION":42.9997,"RA_OF_ASC_NODE":103.1808,"ARG_OF_PERICENTER":235.4612,"MEAN_ANOMALY":124.6167,"EPHEMERIS_TYPE":0,"CLASSIFICATION_TYPE":"U","NORAD_CAT_ID":62599,"ELEMENT_SET_NO":999,"REV_AT_EPOCH":6789,"BSTAR":0.0013186929,"MEAN_MOTION_DOT":0.00172519,"MEAN_MOTION_DDOT":0},{"OBJECT_NAME":"STARLINK-32747","OBJECT_ID":"2025-008P","EPOCH":"2026-03-13T13:37:03.838656","MEAN_MOTION":15.27612389,"ECCENTRICITY":0.00028966,"INCLINATION":43.0009,"RA_OF_ASC_NODE":256.3558,"ARG_OF_PERICENTER":290.5546,"MEAN_ANOMALY":69.4995,"EPHEMERIS_TYPE":0,"CLASSIFICATION_TYPE":"U","NORAD_CAT_ID":62600,"ELEMENT_SET_NO":999,"REV_AT_EPOCH":6615,"BSTAR":0.0016325852,"MEAN_MOTION_DOT":0.00044985,"MEAN_MOTION_DDOT":0}]
